[
  {
    "OBJECT_NAME": "STARLINK-1292",
    "OBJECT_ID": "20019AL",
    "EPOCH": "2025-11-12T03:10:28.872768",
    "MEAN_MOTION": 16.09446612,
    "ECCENTRICITY": 0.000423,
    "INCLINATION": 53.0403,
    "RA_OF_ASC_NODE": 256.4872,
    "ARG_OF_PERICENTER": 96.6686,
    "MEAN_ANOMALY": 263.4829,
    "EPHEMERIS_TYPE": 0,
    "CLASSIFICATION_TYPE": "U",
    "NORAD_CAT_ID": 45394,
    "ELEMENT_SET_NO": 999,
    "REV_AT_EPOCH": 31283,
    "BSTAR": 0.0013132,
    "MEAN_MOTION_DOT": 0.01210211,
    "MEAN_MOTION_DDOT": 0.0009174200000000001,
    "TLE_LINE1": "1 45394U 20019AL  25316.13227862  .01210211  91742-3  13132-2 0  9991",
    "TLE_LINE2": "2 45394  53.0403 256.4872 0004230  96.6686 263.4829 16.09446612312836",
    "COMMENT": "Grouped by shell and plane from TLE"
  }
]